COSMOS 2529 [GLONASS-M] 
1 43687U 18086A   26084.18377329  .00000005  00000+0  00000+0 0  9994
2 43687  64.2947 195.4281 0008714 253.5032 106.4055  2.13101936 57494
COSMOS 2534 [GLONASS-M] 
1 44299U 19030A   26085.95215376 -.00000022  00000+0  00000+0 0  9993
2 44299  64.3675 195.3834 0010587 278.5139 132.5290  2.13102185 53171
COSMOS 2544 [GLONASS-M] 
1 44850U 19088A   26082.62369789  .00000036  00000+0  00000+0 0  9992
2 44850  65.5174  76.5851 0015791 260.6166  99.2133  2.13102020 48890
COSMOS 2545 [GLONASS-M] 
1 45358U 20018A   26085.16554035 -.00000028  00000+0  00000+0 0  9995
2 45358  64.4042 315.3386 0007474 246.9709 113.0018  2.13102438 46890
COSMOS 2547 [GLONASS-K] 
1 46805U 20075A   26086.76204793 -.00000031  00000+0  00000+0 0  9990
2 46805  64.5985 195.1905 0007370 232.5213 127.4084  2.13100219 42176
COSMOS 2557 [GLONASS-K] 
1 52984U 22075A   26087.39625536 -.00000031  00000+0  00000+0 0  9999
2 52984  64.3446 317.3335 0010963 283.6190  76.3135  2.13101758 28991
COSMOS 2559 [GLONASS-K] 
1 54031U 22130A   26086.27716517 -.00000031  00000+0  00000+0 0  9992
2 54031  64.3180 317.4582 0010826 178.2697 181.7868  2.13101261 26941
COSMOS 2564 [GLONASS-M] 
1 54377U 22161A   26087.52838218 -.00000035  00000+0  00000+0 0  9995
2 54377  64.7402 195.3871 0010142 214.6858 145.2434  2.13101826 25911
COSMOS 2569 [GLONASS-K2]
1 57517U 23114A   26087.54112750  .00000041  00000+0  00000+0 0  9997
2 57517  65.2574  75.3385 0012907 293.4527  66.4203  2.13103807 20545
COSMOS 2584 [GLONASS-K2]
1 63130U 25042A   26086.95876139  .00000044  00000+0  00000+0 0  9992
2 63130  65.0390  75.5619 0007432 238.7630 121.1744  2.13103439  8314
COSMOS 2596 [GLONASS-K1]
1 65590U 25206B   26086.61511387 -.00000031  00000+0  00000+0 0  9997
2 65590  64.6808 317.8263 0012287 316.8794 256.7022  2.13100192  4172
